[
  {
    "OBJECT_NAME": "STARLINK-30603",
    "OBJECT_ID": "23160F",
    "EPOCH": "2025-11-11T04:59:32.290368",
    "MEAN_MOTION": 15.02551787,
    "ECCENTRICITY": 0.0001735,
    "INCLINATION": 43.0049,
    "RA_OF_ASC_NODE": 4.1885,
    "ARG_OF_PERICENTER": 280.9672,
    "MEAN_ANOMALY": 79.0975,
    "EPHEMERIS_TYPE": 0,
    "CLASSIFICATION_TYPE": "U",
    "NORAD_CAT_ID": 58080,
    "ELEMENT_SET_NO": 999,
    "REV_AT_EPOCH": 11509,
    "BSTAR": 0.0,
    "MEAN_MOTION_DOT": -2.82e-05,
    "MEAN_MOTION_DDOT": 0.0,
    "TLE_LINE1": "1 58080U 23160F   25315.20801262 -.00002820  00000+0 -19369-3 0  9994",
    "TLE_LINE2": "2 58080  43.0049   4.1885 0001735 280.9672  79.0975 15.02551787115093",
    "COMMENT": "Grouped by shell and plane from TLE"
  },
  {
    "OBJECT_NAME": "STARLINK-30602",
    "OBJECT_ID": "23160G",
    "EPOCH": "2025-11-11T02:35:51.500544",
    "MEAN_MOTION": 15.02542641,
    "ECCENTRICITY": 0.0001313,
    "INCLINATION": 43.0048,
    "RA_OF_ASC_NODE": 4.2857,
    "ARG_OF_PERICENTER": 269.7006,
    "MEAN_ANOMALY": 90.3686,
    "EPHEMERIS_TYPE": 0,
    "CLASSIFICATION_TYPE": "U",
    "NORAD_CAT_ID": 58081,
    "ELEMENT_SET_NO": 999,
    "REV_AT_EPOCH": 11508,
    "BSTAR": 0.00015065,
    "MEAN_MOTION_DOT": 1.832e-05,
    "MEAN_MOTION_DDOT": 0.0,
    "TLE_LINE1": "1 58081U 23160G   25315.10823496  .00001832  00000+0  15065-3 0  9996",
    "TLE_LINE2": "2 58081  43.0048   4.2857 0001313 269.7006  90.3686 15.02542641115084",
    "COMMENT": "Grouped by shell and plane from TLE"
  },
  {
    "OBJECT_NAME": "STARLINK-30610",
    "OBJECT_ID": "23160H",
    "EPOCH": "2025-11-11T03:19:01.332768",
    "MEAN_MOTION": 15.02544024,
    "ECCENTRICITY": 0.0001623,
    "INCLINATION": 43.0063,
    "RA_OF_ASC_NODE": 4.5226,
    "ARG_OF_PERICENTER": 267.8162,
    "MEAN_ANOMALY": 92.2494,
    "EPHEMERIS_TYPE": 0,
    "CLASSIFICATION_TYPE": "U",
    "NORAD_CAT_ID": 58082,
    "ELEMENT_SET_NO": 999,
    "REV_AT_EPOCH": 11508,
    "BSTAR": 0.00010198000000000001,
    "MEAN_MOTION_DOT": 1.174e-05,
    "MEAN_MOTION_DDOT": 0.0,
    "TLE_LINE1": "1 58082U 23160H   25315.13820987  .00001174  00000+0  10198-3 0  9993",
    "TLE_LINE2": "2 58082  43.0063   4.5226 0001623 267.8162  92.2494 15.02544024115086",
    "COMMENT": "Grouped by shell and plane from TLE"
  },
  {
    "OBJECT_NAME": "STARLINK-30551",
    "OBJECT_ID": "23160J",
    "EPOCH": "2025-11-11T04:49:57.524736",
    "MEAN_MOTION": 15.02536142,
    "ECCENTRICITY": 0.0001117,
    "INCLINATION": 43.001,
    "RA_OF_ASC_NODE": 4.1291,
    "ARG_OF_PERICENTER": 272.7721,
    "MEAN_ANOMALY": 87.2993,
    "EPHEMERIS_TYPE": 0,
    "CLASSIFICATION_TYPE": "U",
    "NORAD_CAT_ID": 58083,
    "ELEMENT_SET_NO": 999,
    "REV_AT_EPOCH": 11509,
    "BSTAR": 1.6084e-05,
    "MEAN_MOTION_DOT": 1.4e-07,
    "MEAN_MOTION_DDOT": 0.0,
    "TLE_LINE1": "1 58083U 23160J   25315.20136024  .00000014  00000+0  16084-4 0  9997",
    "TLE_LINE2": "2 58083  43.0010   4.1291 0001117 272.7721  87.2993 15.02536142115092",
    "COMMENT": "Grouped by shell and plane from TLE"
  },
  {
    "OBJECT_NAME": "STARLINK-30586",
    "OBJECT_ID": "23160K",
    "EPOCH": "2025-11-11T04:45:09.529344",
    "MEAN_MOTION": 15.02552962,
    "ECCENTRICITY": 0.0001624,
    "INCLINATION": 43.0048,
    "RA_OF_ASC_NODE": 4.1084,
    "ARG_OF_PERICENTER": 275.2926,
    "MEAN_ANOMALY": 84.7731,
    "EPHEMERIS_TYPE": 0,
    "CLASSIFICATION_TYPE": "U",
    "NORAD_CAT_ID": 58084,
    "ELEMENT_SET_NO": 999,
    "REV_AT_EPOCH": 11509,
    "BSTAR": 0.0,
    "MEAN_MOTION_DOT": -3.183e-05,
    "MEAN_MOTION_DDOT": 0.0,
    "TLE_LINE1": "1 58084U 23160K   25315.19802696 -.00003183  00000+0 -22054-3 0  9996",
    "TLE_LINE2": "2 58084  43.0048   4.1084 0001624 275.2926  84.7731 15.02552962115092",
    "COMMENT": "Grouped by shell and plane from TLE"
  },
  {
    "OBJECT_NAME": "STARLINK-30609",
    "OBJECT_ID": "23160L",
    "EPOCH": "2025-11-11T04:40:21.813024",
    "MEAN_MOTION": 15.02536338,
    "ECCENTRICITY": 0.0002341,
    "INCLINATION": 43.0042,
    "RA_OF_ASC_NODE": 4.0833,
    "ARG_OF_PERICENTER": 270.1127,
    "MEAN_ANOMALY": 89.9448,
    "EPHEMERIS_TYPE": 0,
    "CLASSIFICATION_TYPE": "U",
    "NORAD_CAT_ID": 58085,
    "ELEMENT_SET_NO": 999,
    "REV_AT_EPOCH": 11509,
    "BSTAR": 0.00027079999999999997,
    "MEAN_MOTION_DOT": 3.456e-05,
    "MEAN_MOTION_DDOT": 0.0,
    "TLE_LINE1": "1 58085U 23160L   25315.19469691  .00003456  00000+0  27080-3 0  9996",
    "TLE_LINE2": "2 58085  43.0042   4.0833 0002341 270.1127  89.9448 15.02536338115093",
    "COMMENT": "Grouped by shell and plane from TLE"
  },
  {
    "OBJECT_NAME": "STARLINK-30583",
    "OBJECT_ID": "23160M",
    "EPOCH": "2025-11-11T04:35:33.866880",
    "MEAN_MOTION": 15.02545401,
    "ECCENTRICITY": 0.0002101,
    "INCLINATION": 43.0055,
    "RA_OF_ASC_NODE": 4.058,
    "ARG_OF_PERICENTER": 281.8926,
    "MEAN_ANOMALY": 78.1681,
    "EPHEMERIS_TYPE": 0,
    "CLASSIFICATION_TYPE": "U",
    "NORAD_CAT_ID": 58086,
    "ELEMENT_SET_NO": 999,
    "REV_AT_EPOCH": 11509,
    "BSTAR": 0.00015254,
    "MEAN_MOTION_DOT": 1.858e-05,
    "MEAN_MOTION_DDOT": 0.0,
    "TLE_LINE1": "1 58086U 23160M   25315.19136420  .00001858  00000+0  15254-3 0  9992",
    "TLE_LINE2": "2 58086  43.0055   4.0580 0002101 281.8926  78.1681 15.02545401115097",
    "COMMENT": "Grouped by shell and plane from TLE"
  },
  {
    "OBJECT_NAME": "STARLINK-30557",
    "OBJECT_ID": "23160N",
    "EPOCH": "2025-11-10T11:00:59.219136",
    "MEAN_MOTION": 15.02527329,
    "ECCENTRICITY": 8.63e-05,
    "INCLINATION": 43.0072,
    "RA_OF_ASC_NODE": 8.0266,
    "ARG_OF_PERICENTER": 289.8709,
    "MEAN_ANOMALY": 70.204,
    "EPHEMERIS_TYPE": 0,
    "CLASSIFICATION_TYPE": "U",
    "NORAD_CAT_ID": 58087,
    "ELEMENT_SET_NO": 999,
    "REV_AT_EPOCH": 11498,
    "BSTAR": 0.00015346,
    "MEAN_MOTION_DOT": 1.87e-05,
    "MEAN_MOTION_DDOT": 0.0,
    "TLE_LINE1": "1 58087U 23160N   25314.45901874  .00001870  00000+0  15346-3 0  9990",
    "TLE_LINE2": "2 58087  43.0072   8.0266 0000863 289.8709  70.2040 15.02527329114980",
    "COMMENT": "Grouped by shell and plane from TLE"
  },
  {
    "OBJECT_NAME": "STARLINK-30591",
    "OBJECT_ID": "23160P",
    "EPOCH": "2025-11-11T02:50:14.633952",
    "MEAN_MOTION": 15.02547022,
    "ECCENTRICITY": 0.0001294,
    "INCLINATION": 43.0044,
    "RA_OF_ASC_NODE": 4.3692,
    "ARG_OF_PERICENTER": 274.3285,
    "MEAN_ANOMALY": 85.7409,
    "EPHEMERIS_TYPE": 0,
    "CLASSIFICATION_TYPE": "U",
    "NORAD_CAT_ID": 58088,
    "ELEMENT_SET_NO": 999,
    "REV_AT_EPOCH": 11508,
    "BSTAR": 0.00017083000000000002,
    "MEAN_MOTION_DOT": 2.105e-05,
    "MEAN_MOTION_DDOT": 0.0,
    "TLE_LINE1": "1 58088U 23160P   25315.11822493  .00002105  00000+0  17083-3 0  9996",
    "TLE_LINE2": "2 58088  43.0044   4.3692 0001294 274.3285  85.7409 15.02547022115083",
    "COMMENT": "Grouped by shell and plane from TLE"
  },
  {
    "OBJECT_NAME": "STARLINK-30584",
    "OBJECT_ID": "23160Q",
    "EPOCH": "2025-11-11T04:21:11.246688",
    "MEAN_MOTION": 15.02531079,
    "ECCENTRICITY": 0.0001301,
    "INCLINATION": 43.0034,
    "RA_OF_ASC_NODE": 3.9827,
    "ARG_OF_PERICENTER": 282.9693,
    "MEAN_ANOMALY": 77.1004,
    "EPHEMERIS_TYPE": 0,
    "CLASSIFICATION_TYPE": "U",
    "NORAD_CAT_ID": 58089,
    "ELEMENT_SET_NO": 999,
    "REV_AT_EPOCH": 11509,
    "BSTAR": 0.00010219000000000001,
    "MEAN_MOTION_DOT": 1.177e-05,
    "MEAN_MOTION_DDOT": 0.0,
    "TLE_LINE1": "1 58089U 23160Q   25315.18138017  .00001177  00000+0  10219-3 0  9998",
    "TLE_LINE2": "2 58089  43.0034   3.9827 0001301 282.9693  77.1004 15.02531079115097",
    "COMMENT": "Grouped by shell and plane from TLE"
  },
  {
    "OBJECT_NAME": "STARLINK-30590",
    "OBJECT_ID": "23160R",
    "EPOCH": "2025-11-11T04:30:46.961856",
    "MEAN_MOTION": 15.02527327,
    "ECCENTRICITY": 0.0002624,
    "INCLINATION": 43.0092,
    "RA_OF_ASC_NODE": 4.0356,
    "ARG_OF_PERICENTER": 291.0478,
    "MEAN_ANOMALY": 69.0084,
    "EPHEMERIS_TYPE": 0,
    "CLASSIFICATION_TYPE": "U",
    "NORAD_CAT_ID": 58090,
    "ELEMENT_SET_NO": 999,
    "REV_AT_EPOCH": 11509,
    "BSTAR": 0.00032506,
    "MEAN_MOTION_DOT": 4.189e-05,
    "MEAN_MOTION_DDOT": 0.0,
    "TLE_LINE1": "1 58090U 23160R   25315.18804354  .00004189  00000+0  32506-3 0  9993",
    "TLE_LINE2": "2 58090  43.0092   4.0356 0002624 291.0478  69.0084 15.02527327115092",
    "COMMENT": "Grouped by shell and plane from TLE"
  },
  {
    "OBJECT_NAME": "STARLINK-30608",
    "OBJECT_ID": "23160S",
    "EPOCH": "2025-11-11T04:16:23.302272",
    "MEAN_MOTION": 15.025371,
    "ECCENTRICITY": 0.0001063,
    "INCLINATION": 43.0019,
    "RA_OF_ASC_NODE": 3.9558,
    "ARG_OF_PERICENTER": 277.0519,
    "MEAN_ANOMALY": 83.0202,
    "EPHEMERIS_TYPE": 0,
    "CLASSIFICATION_TYPE": "U",
    "NORAD_CAT_ID": 58091,
    "ELEMENT_SET_NO": 999,
    "REV_AT_EPOCH": 11509,
    "BSTAR": 0.00031319000000000003,
    "MEAN_MOTION_DOT": 4.03e-05,
    "MEAN_MOTION_DDOT": 0.0,
    "TLE_LINE1": "1 58091U 23160S   25315.17804748  .00004030  00000+0  31319-3 0  9996",
    "TLE_LINE2": "2 58091  43.0019   3.9558 0001063 277.0519  83.0202 15.02537100115098",
    "COMMENT": "Grouped by shell and plane from TLE"
  },
  {
    "OBJECT_NAME": "STARLINK-30615",
    "OBJECT_ID": "23160T",
    "EPOCH": "2025-11-11T04:10:00.902784",
    "MEAN_MOTION": 15.02532388,
    "ECCENTRICITY": 0.0001382,
    "INCLINATION": 43.0033,
    "RA_OF_ASC_NODE": 3.9229,
    "ARG_OF_PERICENTER": 275.4346,
    "MEAN_ANOMALY": 84.6339,
    "EPHEMERIS_TYPE": 0,
    "CLASSIFICATION_TYPE": "U",
    "NORAD_CAT_ID": 58092,
    "ELEMENT_SET_NO": 999,
    "REV_AT_EPOCH": 11509,
    "BSTAR": 0.00015038,
    "MEAN_MOTION_DOT": 1.828e-05,
    "MEAN_MOTION_DDOT": 0.0,
    "TLE_LINE1": "1 58092U 23160T   25315.17362156  .00001828  00000+0  15038-3 0  9991",
    "TLE_LINE2": "2 58092  43.0033   3.9229 0001382 275.4346  84.6339 15.02532388115095",
    "COMMENT": "Grouped by shell and plane from TLE"
  }
]